{
    "links": {
        "self": "http://www.neowsapp.com/rest/v1/neo/3787096?api_key=iIulBulltgU6a56xZRHN4H3l9WmuAYTsLGpBGhQ2"
    },
    "id": "3787096",
    "neo_reference_id": "3787096",
    "name": "(2017 UR1)",
    "designation": "2017 UR1",
    "nasa_jpl_url": "http://ssd.jpl.nasa.gov/sbdb.cgi?sstr=3787096",
    "absolute_magnitude_h": 25.4,
    "estimated_diameter": {
        "kilometers": {
            "estimated_diameter_min": 0.022108281,
            "estimated_diameter_max": 0.0494356193
        },
        "meters": {
            "estimated_diameter_min": 22.1082810359,
            "estimated_diameter_max": 49.435619262
        },
        "miles": {
            "estimated_diameter_min": 0.0137374447,
            "estimated_diameter_max": 0.0307178602
        },
        "feet": {
            "estimated_diameter_min": 72.5337327539,
            "estimated_diameter_max": 162.1903570994
        }
    },
    "is_potentially_hazardous_asteroid": false,
    "close_approach_data": [
        {
            "close_approach_date": "2017-05-21",
            "close_approach_date_full": "2017-May-21 02:28",
            "epoch_date_close_approach": 1495333680000,
            "relative_velocity": {
                "kilometers_per_second": "8.0496924195",
                "kilometers_per_hour": "28978.8927100312",
                "miles_per_hour": "18006.3569730747"
            },
            "miss_distance": {
                "astronomical": "0.3704943715",
                "lunar": "144.1223105135",
                "kilometers": "55425168.823388705",
                "miles": "34439602.921245929"
            },
            "orbiting_body": "Earth"
        },
        {
            "close_approach_date": "2017-10-13",
            "close_approach_date_full": "2017-Oct-13 15:42",
            "epoch_date_close_approach": 1507909320000,
            "relative_velocity": {
                "kilometers_per_second": "10.6752994715",
                "kilometers_per_hour": "38431.0780975138",
                "miles_per_hour": "23879.577387869"
            },
            "miss_distance": {
                "astronomical": "0.045402746",
                "lunar": "17.661668194",
                "kilometers": "6792154.09375102",
                "miles": "4220448.849043276"
            },
            "orbiting_body": "Earth"
        },
        {
            "close_approach_date": "2022-06-01",
            "close_approach_date_full": "2022-Jun-01 17:59",
            "epoch_date_close_approach": 1654106340000,
            "relative_velocity": {
                "kilometers_per_second": "18.4291114062",
                "kilometers_per_hour": "66344.8010624798",
                "miles_per_hour": "41224.0793046281"
            },
            "miss_distance": {
                "astronomical": "0.4262312512",
                "lunar": "165.8039567168",
                "kilometers": "63763287.306954944",
                "miles": "39620669.4976844672"
            },
            "orbiting_body": "Earth"
        }
    ],
    "orbital_data": {
        "orbit_id": "4",
        "orbit_determination_date": "2017-10-29 06:40:24",
        "first_observation_date": "2017-10-17",
        "last_observation_date": "2017-10-28",
        "data_arc_in_days": 11,
        "observations_used": 41,
        "orbit_uncertainty": "8",
        "minimum_orbit_intersection": ".0451937",
        "jupiter_tisserand_invariant": "4.702",
        "epoch_osculation": "2458047.5",
        "eccentricity": ".3199637006688535",
        "semi_major_axis": "1.385681713402777",
        "inclination": "14.55103106574382",
        "ascending_node_longitude": "27.12579435599663",
        "orbital_period": "595.7906116603596",
        "perihelion_distance": ".9423138644332665",
        "perihelion_argument": "303.316276720427",
        "aphelion_distance": "1.829049562372287",
        "perihelion_time": "2457997.306320628934",
        "mean_anomaly": "30.32898508290813",
        "mean_motion": ".6042391285702636",
        "equinox": "J2000",
        "orbit_class": {
            "orbit_class_type": "APO",
            "orbit_class_description": "Near-Earth asteroid orbits which cross the Earth’s orbit similar to that of 1862 Apollo",
            "orbit_class_range": "a (semi-major axis) > 1.0 AU; q (perihelion) < 1.017 AU"
        }
    },
    "is_sentry_object": false
}